STARLINK-3597           
1 51898U 22022AY  26068.19580093 -.00000402  00000+0 -71906-5 0  9991
2 51898  53.2196   1.3366 0001495  92.6992 267.4172 15.08844101223226
CSC-1                   
1 58022U 23155G   26068.74030489  .00008819  00000+0  54557-3 0  9994
2 58022  97.5446 139.7305 0007504 212.9992 147.0770 15.10035960132723
